NORAD_CAT_ID,OBJECT_NAME,OBJECT_TYPE,EPOCH,MEAN_MOTION,ECCENTRICITY,INCLINATION,RA_OF_ASC_NODE,ARG_OF_PERICENTER,MEAN_ANOMALY,BSTAR,MEAN_MOTION_DOT,MEAN_MOTION_DDOT,TLE_LINE0,TLE_LINE1,TLE_LINE2,SEMIMAJOR_AXIS,PERIOD,APOGEE,PERIGEE,DECAYED
49161.0,STARLINK-3080,PAYLOAD,2023-09-11 17:48:45,14.98322962,0.0002923,70.0011,68.7409,268.4705,91.6119,0.00043687,5.123e-05,0.0,0 STARLINK-3080,1 49161U 21082AH  23254.74219414  .00005123  00000-0  43687-3 0  9994,2 49161  70.0011  68.7409 0002923 268.4705  91.6119 14.98322962110751,6950.215,96.107,574.111,570.048,0.0
49161.0,STARLINK-3080,PAYLOAD,2023-09-12 13:02:21,14.98341681,0.0002596,70.002,66.7179,262.5829,97.5035,-3.8855e-05,-5.57e-06,0.0,0 STARLINK-3080,1 49161U 21082AH  23255.54330821 -.00000557  00000-0 -38855-4 0  9999,2 49161  70.0020  66.7179 0002596 262.5829  97.5035 14.98341681110875,6950.157,96.106,573.826,570.218,0.0
49161.0,STARLINK-3080,PAYLOAD,2023-09-12 17:50:46,14.98335031,0.0002827,70.001,66.2146,265.0693,95.0144,-5.167e-05,-7.09e-06,0.0,0 STARLINK-3080,1 49161U 21082AH  23255.74359113 -.00000709  00000-0 -51670-4 0  9995,2 49161  70.0010  66.2146 0002827 265.0693  95.0144 14.98335031110907,6950.177,96.107,574.007,570.078,0.0
49161.0,STARLINK-3080,PAYLOAD,2023-09-12 21:03:02,14.98334155,0.0002892,70.0009,65.8777,265.6592,94.4237,-3.8706e-05,-5.55e-06,0.0,0 STARLINK-3080,1 49161U 21082AH  23255.87711080 -.00000555  00000-0 -38706-4 0  9998,2 49161  70.0009  65.8777 0002892 265.6592  94.4237 14.98334155110920,6950.18,96.107,574.055,570.035,0.0
49161.0,STARLINK-3080,PAYLOAD,2023-09-13 05:03:41,14.98349449,0.0003191,70.0006,65.036,266.9035,93.1759,-0.00019154,-2.379e-05,0.0,0 STARLINK-3080,1 49161U 21082AH  23256.21090066 -.00002379  00000-0 -19154-3 0  9992,2 49161  70.0006  65.0360 0003191 266.9035  93.1759 14.98349449110978,6950.133,96.106,574.216,569.78,0.0
49161.0,STARLINK-3080,PAYLOAD,2023-09-13 13:04:21,14.98340415,0.0003135,70.0005,64.1942,270.7456,89.3344,-3.1722e-06,-1.31e-06,0.0,0 STARLINK-3080,1 49161U 21082AH  23256.54469902 -.00000131  00000-0 -31722-5 0  9998,2 49161  70.0005  64.1942 0003135 270.7456  89.3344 14.98340415111029,6950.161,96.106,574.205,569.847,0.0
49161.0,STARLINK-3080,PAYLOAD,2023-09-13 21:05:01,14.98342377,0.000304,70.0004,63.3527,269.0071,91.074,2.7654e-05,2.37e-06,0.0,0 STARLINK-3080,1 49161U 21082AH  23256.87849486  .00000237  00000-0  27654-4 0  9996,2 49161  70.0004  63.3527 0003040 269.0071  91.0740 14.98342377111071,6950.155,96.106,574.132,569.907,0.0
49161.0,STARLINK-3080,PAYLOAD,2023-09-14 13:06:23,14.98324148,0.0002903,70.0011,61.6705,269.4809,90.6017,-2.0736e-05,-3.4e-06,0.0,0 STARLINK-3080,1 49161U 21082AH  23257.54610720 -.00000340  00000-0 -20736-4 0  9999,2 49161  70.0011  61.6705 0002903 269.4809  90.6017 14.98324148111177,6950.211,96.107,574.094,570.058,0.0
49161.0,STARLINK-3080,PAYLOAD,2023-09-14 17:54:48,14.98322264,0.0002882,70.0013,61.1656,269.2996,90.7833,-4.0369e-05,-5.74e-06,0.0,0 STARLINK-3080,1 49161U 21082AH  23257.74638947 -.00000574  00000-0 -40369-4 0  9995,2 49161  70.0013  61.1656 0002882 269.2996  90.7833 14.98322264111208,6950.217,96.107,574.085,570.079,0.0
49161.0,STARLINK-3080,PAYLOAD,2023-09-14 21:07:04,14.98318857,0.0002946,70.0015,60.8296,272.1507,87.9315,2.4489e-06,-6.4e-07,0.0,0 STARLINK-3080,1 49161U 21082AH  23257.87991071 -.00000064  00000-0  24489-5 0  9998,2 49161  70.0015  60.8296 0002946 272.1507  87.9315 14.98318857111226,6950.227,96.108,574.14,570.045,0.0
49161.0,STARLINK-3080,PAYLOAD,2023-09-15 09:56:08,14.98330117,0.000335,70.0003,59.4812,271.6003,88.4772,8.425e-06,7e-08,0.0,0 STARLINK-3080,1 49161U 21082AH  23258.41398312  .00000007  00000-0  84250-5 0  9996,2 49161  70.0003  59.4812 0003350 271.6003  88.4772 14.98330117111301,6950.193,96.107,574.386,569.729,0.0
49161.0,STARLINK-3080,PAYLOAD,2023-09-15 13:08:24,14.98332,0.0002994,70.0011,59.1452,271.0176,89.064,6.0379e-05,6.28e-06,0.0,0 STARLINK-3080,1 49161U 21082AH  23258.54750089  .00000628  00000-0  60379-4 0  9997,2 49161  70.0011  59.1452 0002994 271.0176  89.0640 14.98332000111321,6950.187,96.107,574.133,569.971,0.0
49161.0,STARLINK-3080,PAYLOAD,2023-09-15 21:09:04,14.98335455,0.0003116,70.0007,58.3035,264.8412,95.2392,5.7568e-05,5.94e-06,0.0,0 STARLINK-3080,1 49161U 21082AH  23258.88129735  .00000594  00000-0  57568-4 0  9990,2 49161  70.0007  58.3035 0003116 264.8412  95.2392 14.98335455111379,6950.176,96.107,574.207,569.875,0.0
49161.0,STARLINK-3080,PAYLOAD,2023-09-16 09:58:09,14.9832514,0.0003055,70.001,56.957,267.5192,92.5617,9.4243e-05,1.032e-05,0.0,0 STARLINK-3080,1 49161U 21082AH  23259.41538289  .00001032  00000-0  94243-4 0  9997,2 49161  70.0010  56.9570 0003055 267.5192  92.5617 14.98325140111457,6950.208,96.107,574.196,569.95,0.0
49161.0,STARLINK-3080,PAYLOAD,2023-09-16 13:10:25,14.98325016,0.0003057,70.001,56.6204,267.5841,92.4968,8.8041e-05,9.58e-06,0.0,0 STARLINK-3080,1 49161U 21082AH  23259.54890347  .00000958  00000-0  88041-4 0  9992,2 49161  70.0010  56.6204 0003057 267.5841  92.4968 14.98325016111473,6950.208,96.107,574.198,569.949,0.0
49161.0,STARLINK-3080,PAYLOAD,2023-09-17 13:12:25,14.98334541,0.0003035,70.0015,54.0958,267.1396,92.9416,2.9068e-05,2.54e-06,0.0,0 STARLINK-3080,1 49161U 21082AH  23260.55029980  .00000254  00000-0  29068-4 0  9995,2 49161  70.0015  54.0958 0003035 267.1396  92.9416 14.98334541111626,6950.179,96.107,574.153,569.934,0.0
49161.0,STARLINK-3080,PAYLOAD,2023-09-17 18:00:50,14.98332308,0.0003051,70.0015,53.5907,268.0539,92.0271,9.5773e-05,1.05e-05,0.0,0 STARLINK-3080,1 49161U 21082AH  23260.75057916  .00001050  00000-0  95773-4 0  9998,2 49161  70.0015  53.5907 0003051 268.0539  92.0271 14.98332308111653,6950.186,96.107,574.171,569.93,0.0
49161.0,STARLINK-3080,PAYLOAD,2023-09-18 13:14:27,14.98327637,0.0003106,70.0016,51.57,269.9976,90.0827,4.3711e-05,4.29e-06,0.0,0 STARLINK-3080,1 49161U 21082AH  23261.55170166  .00000429  00000-0  43711-4 0  9994,2 49161  70.0016  51.5700 0003106 269.9976  90.0827 14.98327637111776,6950.2,96.107,574.224,569.906,0.0
49161.0,STARLINK-3080,PAYLOAD,2023-09-18 18:02:50,14.98333449,0.0003065,70.0014,51.0659,270.1974,89.8833,5.7389e-05,5.92e-06,0.0,0 STARLINK-3080,1 49161U 21082AH  23261.75197772  .00000592  00000-0  57389-4 0  9995,2 49161  70.0014  51.0659 0003065 270.1974  89.8833 14.98333449111803,6950.182,96.107,574.177,569.917,0.0
49161.0,STARLINK-3080,PAYLOAD,2023-09-18 19:38:58,14.98333135,0.0002892,70.0014,50.8968,266.1627,93.9202,5.7926e-05,5.98e-06,0.0,0 STARLINK-3080,1 49161U 21082AH  23261.81873761  .00000598  00000-0  57926-4 0  9994,2 49161  70.0014  50.8968 0002892 266.1627  93.9202 14.98333135111819,6950.183,96.107,574.058,570.038,0.0
49161.0,STARLINK-3080,PAYLOAD,2023-09-19 18:04:51,14.98338085,0.0002946,70.0011,48.5403,267.0832,92.999,5.6184e-05,5.78e-06,0.0,0 STARLINK-3080,1 49161U 21082AH  23262.75337203  .00000578  00000-0  56184-4 0  9997,2 49161  70.0011  48.5403 0002946 267.0832  92.9990 14.98338085111959,6950.168,96.106,574.08,569.985,0.0
49161.0,STARLINK-3080,PAYLOAD,2023-09-20 10:06:13,14.98323507,0.0002646,70.0026,46.8575,271.7444,88.3412,-3.1185e-05,-4.65e-06,0.0,0 STARLINK-3080,1 49161U 21082AH  23263.42098519 -.00000465  00000-0 -31185-4 0  9997,2 49161  70.0026  46.8575 0002646 271.7444  88.3412 14.98323507112057,6950.213,96.107,573.917,570.239,0.0
49161.0,STARLINK-3080,PAYLOAD,2023-09-20 13:18:29,14.98321316,0.0002674,70.0025,46.5236,261.3849,98.7007,-6.0082e-05,-8.1e-06,0.0,0 STARLINK-3080,1 49161U 21082AH  23263.55450712 -.00000810  00000-0 -60082-4 0  9990,2 49161  70.0025  46.5236 0002674 261.3849  98.7007 14.98321316112075,6950.22,96.108,573.943,570.226,0.0
49161.0,STARLINK-3080,PAYLOAD,2023-09-20 19:43:01,14.98321265,0.0003026,70.0014,45.8479,269.1053,90.9759,-9.7534e-05,-1.256e-05,0.0,0 STARLINK-3080,1 49161U 21082AH  23263.82154992 -.00001256  00000-0 -97534-4 0  9998,2 49161  70.0014  45.8479 0003026 269.1053  90.9759 14.98321265112115,6950.22,96.108,574.188,569.982,0.0
49161.0,STARLINK-3080,PAYLOAD,2023-09-21 10:08:13,14.98329511,0.0003135,70.0005,44.3325,271.6901,88.3899,1.2641e-05,5.8e-07,0.0,0 STARLINK-3080,1 49161U 21082AH  23264.42238359  .00000058  00000-0  12641-4 0  9998,2 49161  70.0005  44.3325 0003135 271.6901  88.3899 14.98329511112208,6950.194,96.107,574.238,569.881,0.0
49161.0,STARLINK-3080,PAYLOAD,2023-09-21 13:20:29,14.98331801,0.0003133,70.0008,43.9957,272.1007,87.9793,4.4515e-05,4.38e-06,0.0,0 STARLINK-3080,1 49161U 21082AH  23264.55590146  .00000438  00000-0  44515-4 0  9994,2 49161  70.0008  43.9957 0003133 272.1007  87.9793 14.98331801112223,6950.187,96.107,574.23,569.875,0.0
49161.0,STARLINK-3080,PAYLOAD,2023-09-21 18:08:53,14.9836351,0.0002595,70.0012,43.4911,261.5772,98.5093,-0.000418,-5.081e-05,0.0,0 STARLINK-3080,1 49161U 21082AH  23264.75617116 -.00005081  00000-0 -41800-3 0  9997,2 49161  70.0012  43.4911 0002595 261.5772  98.5093 14.98363510112251,6950.089,96.105,573.758,570.151,0.0
49161.0,STARLINK-3080,PAYLOAD,2023-09-21 19:45:01,14.98336545,0.0003001,70.0012,43.3228,270.0798,90.0017,0.00010735,1.188e-05,0.0,0 STARLINK-3080,1 49161U 21082AH  23264.82293692  .00001188  00000-0  10735-3 0  9999,2 49161  70.0012  43.3228 0003001 270.0798  90.0017 14.98336545112269,6950.173,96.107,574.123,569.952,0.0
49161.0,STARLINK-3080,PAYLOAD,2023-09-22 02:09:34,14.98335571,0.0002973,70.0019,42.6502,269.7002,90.3816,4.7751e-05,4.77e-06,0.0,0 STARLINK-3080,1 49161U 21082AH  23265.08997805  .00000477  00000-0  47751-4 0  9994,2 49161  70.0019  42.6502 0002973 269.7002  90.3816 14.98335571112306,6950.176,96.107,574.107,569.974,0.0
49161.0,STARLINK-3080,PAYLOAD,2023-09-22 13:22:30,14.98332773,0.0002886,70.0016,41.4714,265.716,94.3669,0.00012968,1.455e-05,0.0,0 STARLINK-3080,1 49161U 21082AH  23265.55729900  .00001455  00000-0  12968-3 0  9993,2 49161  70.0016  41.4714 0002886 265.7160  94.3669 14.98332773112377,6950.184,96.107,574.055,570.043,0.0
